*******************************************************************************
 Revised: April 12, 2021                 Earth                              399
 
 GEOPHYSICAL PROPERTIES (revised May 9, 2022):
  Vol. Mean Radius (km)    = 6371.01+-0.02   Mass x10^24 (kg)= 5.97219+-0.0006
  Equ. radius, km          = 6378.137        Mass layers:
  Polar axis, km           = 6356.752          Atmos         = 5.1   x 10^18 kg
  Flattening               = 1/298.257223563   oceans        = 1.4   x 10^21 kg
  Density, g/cm^3          = 5.51              crust         = 2.6   x 10^22 kg
  J2 (IERS 2010)           = 0.00108262545     mantle        = 4.043 x 10^24 kg
  g_p, m/s^2  (polar)      = 9.8321863685      outer core    = 1.835 x 10^24 kg
  g_e, m/s^2  (equatorial) = 9.7803267715      inner core    = 9.675 x 10^22 kg
  g_o, m/s^2               = 9.82022         Fluid core rad  = 3480 km
  GM, km^3/s^2             = 398600.435436   Inner core rad  = 1215 km
  GM 1-sigma, km^3/s^2     =      0.0014     Escape velocity = 11.186 km/s
  Rot. Rate (rad/s)        = 0.00007292115   Surface area:
  Mean sidereal day, hr    = 23.9344695944     land          = 1.48 x 10^8 km
  Mean solar day 2000.0, s = 86400.002         sea           = 3.62 x 10^8 km
  Mean solar day 1820.0, s = 86400.0         Love no., k2    = 0.299
  Moment of inertia        = 0.3308          Atm. pressure   = 1.0 bar
  Mean surface temp (Ts), K= 287.6           Volume, km^3    = 1.08321 x 10^12
  Mean effect. temp (Te), K= 255             Magnetic moment = 0.61 gauss Rp^3
  Geometric albedo         = 0.367           Vis. mag. V(1,0)= -3.86
  Solar Constant (W/m^2)   = 1367.6 (mean), 1414 (perihelion), 1322 (aphelion)
 HELIOCENTRIC ORBIT CHARACTERISTICS:
  Obliquity to orbit, deg  = 23.4392911  Sidereal orb period  = 1.0000174 y
  Orbital speed, km/s      = 29.79       Sidereal orb period  = 365.25636 d
  Mean daily motion, deg/d = 0.9856474   Hill's sphere radius = 234.9       
*******************************************************************************


*******************************************************************************
Ephemeris / WWW_USER Wed May 27 02:33:04 2026 Pasadena, USA      / Horizons
*******************************************************************************
Target body name: Earth (399)                     {source: DE441}
Center body name: Solar System Barycenter (0)     {source: DE441}
Center-site name: BODY CENTER
*******************************************************************************
Start time      : A.D. 1800-Jan-01 00:00:00.0000 TDB
Stop  time      : A.D. 2000-Jan-01 00:00:00.0000 TDB
Step-size       : 14400 minutes
*******************************************************************************
Center geodetic : 0.0, 0.0, 0.0                   {E-lon(deg),Lat(deg),Alt(km)}
Center cylindric: 0.0, 0.0, 0.0                   {E-lon(deg),Dxy(km),Dz(km)}
Center radii    : (undefined)
Output units    : KM-S
Calendar mode   : Mixed Julian/Gregorian
Output type     : GEOMETRIC cartesian states
Output format   : 3 (position, velocity, LT, range, range-rate)
Reference frame : Ecliptic of J2000.0
*******************************************************************************
JDTDB
   X     Y     Z
   VX    VY    VZ
   LT    RG    RR
*******************************************************************************
$$SOE
2421836.500000000 = A.D. 1918-Aug-31 00:00:00.0000 TDB 
 X = 1.402667975540493E+08 Y =-5.787688765262891E+07 Z =-1.081539182816073E+04
 VX= 1.074268355060291E+01 VY= 2.749505972379441E+01 VZ= 5.906561595448778E-03
 LT= 5.061444550449122E+02 RG= 1.517382902809848E+08 RR=-5.567924060701125E-01
2421846.500000000 = A.D. 1918-Sep-10 00:00:00.0000 TDB 
 X = 1.474836703849123E+08 Y =-3.341114105191049E+07 Z =-6.354469671431929E+03
 VX= 5.913954637297224E+00 VY= 2.899618771905682E+01 VZ= 4.256912736092744E-03
 LT= 5.044183711842493E+02 RG= 1.512208233576825E+08 RR=-6.386951635132113E-01
2421856.500000000 = A.D. 1918-Sep-20 00:00:00.0000 TDB 
 X = 1.504337707881260E+08 Y =-8.021260222286372E+06 Z =-2.635838381231762E+03
 VX= 9.013043243332542E-01 VY= 2.963611129336348E+01 VZ= 5.143153182650906E-03
 LT= 5.025058680150905E+02 RG= 1.506474693316675E+08 RR=-6.779560687825255E-01
2421866.500000000 = A.D. 1918-Sep-30 00:00:00.0000 TDB 
 X = 1.490244372014280E+08 Y = 1.756754603495867E+07 Z = 2.434543871373869E+03
 VX=-4.172360389222030E+00 VY= 2.945650430841997E+01 VZ= 5.639932097919242E-03
 LT= 5.005340326693601E+02 RG= 1.500563279665998E+08 RR=-6.951066377605390E-01
2421876.500000000 = A.D. 1918-Oct-10 00:00:00.0000 TDB 
 X = 1.432365679394579E+08 Y = 4.261946873695902E+07 Z = 6.320467078860849E+03
 VX=-9.198004414479827E+00 VY= 2.838141949311600E+01 VZ= 3.627919746636010E-03
 LT= 4.984873348115709E+02 RG= 1.494427433850298E+08 RR=-7.219456632737180E-01
2421886.500000000 = A.D. 1918-Oct-20 00:00:00.0000 TDB 
 X = 1.332094804017988E+08 Y = 6.635973793775557E+07 Z = 9.866888974733651E+03
 VX=-1.395426898393498E+01 VY= 2.644046187606018E+01 VZ= 5.064542977272879E-03
 LT= 4.964211609096357E+02 RG= 1.488233200323132E+08 RR=-7.005538493189331E-01
2421896.500000000 = A.D. 1918-Oct-30 00:00:00.0000 TDB 
 X = 1.192252799592755E+08 Y = 8.808947203652662E+07 Z = 1.402896435325965E+04
 VX=-1.835099673368670E+01 VY= 2.372767654825278E+01 VZ= 3.733195712625204E-03
 LT= 4.944678210607560E+02 RG= 1.482377234777082E+08 RR=-6.593744739901783E-01
2421906.500000000 = A.D. 1918-Nov-09 00:00:00.0000 TDB 
 X = 1.016455683200051E+08 Y = 1.071351815712325E+08 Z = 1.625517866914719E+04
 VX=-2.223912753266959E+01 VY= 2.023760036969801E+01 VZ= 2.037901351985560E-03
 LT= 4.926118213032585E+02 RG= 1.476813087483606E+08 RR=-6.253312249320787E-01
2421916.500000000 = A.D. 1918-Nov-19 00:00:00.0000 TDB 
 X = 8.099713497985150E+07 Y = 1.228784993489795E+08 Z = 1.864481570607424E+04
 VX=-2.543832490954237E+01 VY= 1.611842774054466E+01 VZ= 3.360433737111812E-03
 LT= 4.909136781909850E+02 RG= 1.471722182506964E+08 RR=-5.423792753180604E-01
2421926.500000000 = A.D. 1918-Nov-29 00:00:00.0000 TDB 
 X = 5.789291620265069E+07 Y = 1.348444306069396E+08 Z = 2.057495774941146E+04
 VX=-2.791506047151442E+01 VY= 1.149819919259005E+01 VZ= 7.039985994250486E-04
 LT= 4.894944915999167E+02 RG= 1.467467568141994E+08 RR=-4.471384613812676E-01
2421936.500000000 = A.D. 1918-Dec-09 00:00:00.0000 TDB 
 X = 3.300825231605250E+07 Y = 1.426259476033327E+08 Z = 2.048892444334179E+04
 VX=-2.953261491711210E+01 VY= 6.462152996972450E+00 VZ=-1.001207958934991E-04
 LT= 4.883235501250359E+02 RG= 1.463957173912707E+08 RR=-3.630523691841058E-01
2421946.500000000 = A.D. 1918-Dec-19 00:00:00.0000 TDB 
 X = 7.131700275716125E+06 Y = 1.459593637681122E+08 Z = 2.093659796411544E+04
 VX=-3.021766496974503E+01 VY= 1.240742915799062E+00 VZ= 4.048531692693591E-04
 LT= 4.874488600818515E+02 RG= 1.461334919132363E+08 RR=-2.354372983202506E-01
2421956.500000000 = A.D. 1918-Dec-29 00:00:00.0000 TDB 
 X =-1.895279576042653E+07 Y = 1.447521333032221E+08 Z = 1.994517910847068E+04
 VX=-3.000794224686317E+01 VY=-4.037928012452350E+00 VZ=-2.612052134007392E-03
 LT= 4.869623267959118E+02 RG= 1.459876329035456E+08 RR=-1.079841156141509E-01
2421966.500000000 = A.D. 1919-Jan-08 00:00:00.0000 TDB 
 X =-4.444340792580607E+07 Y = 1.390080879447082E+08 Z = 1.753862189564109E+04
 VX=-2.883598863922027E+01 VY=-9.220862290369542E+00 VZ=-2.240931062038154E-03
 LT= 4.868032317369522E+02 RG= 1.459399374047645E+08 RR=-1.403792926340385E-03
2421976.500000000 = A.D. 1919-Jan-18 00:00:00.0000 TDB 
 X =-6.852328265069389E+07 Y = 1.289173536812973E+08 Z = 1.572365561666340E+04
 VX=-2.677019700018305E+01 VY=-1.407199016171700E+01 VZ=-2.900361095015569E-03
 LT= 4.869935787338546E+02 RG= 1.459970019988388E+08 RR= 1.387562559426778E-01
2421986.500000000 = A.D. 1919-Jan-28 00:00:00.0000 TDB 
 X =-9.047433860321395E+07 Y = 1.148099516208239E+08 Z = 1.199030983898789E+04
 VX=-2.390947042835557E+01 VY=-1.850510275583637E+01 VZ=-5.256287104933755E-03
 LT= 4.875850393988676E+02 RG= 1.461743174454134E+08 RR= 2.642290990175823E-01
2421996.500000000 = A.D. 1919-Feb-07 00:00:00.0000 TDB 
 X =-1.096157386703717E+08 Y = 9.710773234627073E+07 Z = 7.909114102348685E+03
 VX=-2.028191829907800E+01 VY=-2.235530089723870E+01 VZ=-3.908140616044165E-03
 LT= 4.884809223839005E+02 RG= 1.464428964075767E+08 RR= 3.574420496337825E-01
2422006.500000000 = A.D. 1919-Feb-17 00:00:00.0000 TDB 
 X =-1.253566025437733E+08 Y = 7.639556148503199E+07 Z = 4.128731143496931E+03
 VX=-1.607500863071998E+01 VY=-2.546678481350344E+01 VZ=-5.516057419708176E-03
 LT= 4.896757231435822E+02 RG= 1.468010886641420E+08 RR= 4.738324532976110E-01
2422016.500000000 = A.D. 1919-Feb-27 00:00:00.0000 TDB 
 X =-1.372615594019000E+08 Y = 5.331724777154785E+07 Z =-1.357314670577645E+03
 VX=-1.141130779969852E+01 VY=-2.782174496083438E+01 VZ=-6.449122861695855E-03
 LT= 4.911833476816974E+02 RG= 1.472530631301647E+08 RR= 5.633502005199356E-01
2422026.500000000 = A.D. 1919-Mar-09 00:00:00.0000 TDB 
 X =-1.449721033814786E+08 Y = 2.857337240045395E+07 Z =-6.048211405629292E+03
 VX=-6.398968232343286E+00 VY=-2.929804873186379E+01 VZ=-4.786793353039442E-03
 LT= 4.928780409747805E+02 RG= 1.477611193980541E+08 RR= 6.126635776190988E-01
2422036.500000000 = A.D. 1919-Mar-19 00:00:00.0000 TDB 
 X =-1.482894768672653E+08 Y = 2.950904110016550E+06 Z =-1.093119255725620E+04
 VX=-1.272984533988843E+00 VY=-2.987097102298333E+01 VZ=-6.677756053203865E-03
 LT= 4.947383809698675E+02 RG= 1.483188352978970E+08 RR= 6.784297640765131E-01
2422046.500000000 = A.D. 1919-Mar-29 00:00:00.0000 TDB 
 X =-1.471678815991351E+08 Y =-2.279766157332504E+07 Z =-1.669515440771170E+04
 VX= 3.864135810711534E+00 VY=-2.958548097266647E+01 VZ=-5.876105888441785E-03
 LT= 4.967543193349761E+02 RG= 1.489231984155494E+08 RR= 7.104547877919634E-01
